{"type": "FeatureCollection", "features": [ {"type": "Feature", "properties": {"norad_id": 29750, "name": "FENGYUN 1C DEB", "group": "fengyun-1c-debris", "lat": 56.1359774976357, "lon": -2.0828533090500647, "alt_km": 860.3322124369461, "timestamp": "2025-12-07T22:37:43.350664+00:00", "meta": {"OBJECT_NAME": "FENGYUN 1C DEB", "OBJECT_ID": "1999-025AQ", "EPOCH": "2025-12-07T00:21:03.677760", "MEAN_MOTION": 14.09636334, "ECCENTRICITY": 0.00352161, "INCLINATION": 98.7552, "RA_OF_ASC_NODE": 10.2906, "ARG_OF_PERICENTER": 318.0386, "MEAN_ANOMALY": 70.8887, "EPHEMERIS_TYPE": 0, "CLASSIFICATION_TYPE": "U", "NORAD_CAT_ID": 29750, "ELEMENT_SET_NO": 999, "REV_AT_EPOCH": 96993, "BSTAR": 0.00045258339, "MEAN_MOTION_DOT": 7.54e-06, "MEAN_MOTION_DDOT": 0}, "tle": {"line1": "1 29750U 99025AQ  25341.01462590  .00000754  00000+0  45258-3 0  9992", "line2": "2 29750  98.7552  10.2906 0035216 318.0386  70.8887 14.09636334969938"}}, "geometry": {"type": "Point", "coordinates": [-2.0828533090500647, 56.1359774976357]}}, {"type": "Feature", "properties": {"norad_id": 29751, "name": "FENGYUN 1C DEB", "group": "fengyun-1c-debris", "lat": -46.67618006117255, "lon": 19.12325904597676, "alt_km": 880.2844542205867, "timestamp": "2025-12-07T22:37:43.350675+00:00", "meta": {"OBJECT_NAME": "FENGYUN 1C DEB", "OBJECT_ID": "1999-025AR", "EPOCH": "2025-12-07T07:44:53.240352", "MEAN_MOTION": 14.23623022, "ECCENTRICITY": 0.00896868, "INCLINATION": 98.542, "RA_OF_ASC_NODE": 9.3515, "ARG_OF_PERICENTER": 154.8812, "MEAN_ANOMALY": 221.6346, "EPHEMERIS_TYPE": 0, "CLASSIFICATION_TYPE": "U", "NORAD_CAT_ID": 29751, "ELEMENT_SET_NO": 999, "REV_AT_EPOCH": 97996, "BSTAR": 0.00028947927, "MEAN_MOTION_DOT": 6.46e-06, "MEAN_MOTION_DDOT": 0}, "tle": {"line1": "1 29751U 99025AR  25341.32283843  .00000646  00000+0  28948-3 0  9996", "line2": "2 29751  98.5420   9.3515 0089686 154.8812 221.6346 14.23623022979962"}}, "geometry": {"type": "Point", "coordinates": [19.12325904597676, -46.67618006117255]}}, {"type": "Feature", "properties": {"norad_id": 29754, "name": "FENGYUN 1C DEB", "group": "fengyun-1c-debris", "lat": 16.432647339022804, "lon": -92.68507482765706, "alt_km": 828.73524104635, "timestamp": "2025-12-07T22:37:43.350685+00:00", "meta": {"OBJECT_NAME": "FENGYUN 1C DEB", "OBJECT_ID": "1999-025AU", "EPOCH": "2025-12-07T06:43:19.711200", "MEAN_MOTION": 14.19116709, "ECCENTRICITY": 0.00357129, "INCLINATION": 98.8848, "RA_OF_ASC_NODE": 84.0064, "ARG_OF_PERICENTER": 255.0457, "MEAN_ANOMALY": 124.5156, "EPHEMERIS_TYPE": 0, "CLASSIFICATION_TYPE": "U", "NORAD_CAT_ID": 29754, "ELEMENT_SET_NO": 999, "REV_AT_EPOCH": 97277, "BSTAR": 0.0016888085, "MEAN_MOTION_DOT": 3.511e-05, "MEAN_MOTION_DDOT": 0}, "tle": {"line1": "1 29754U 99025AU  25341.28008925  .00003511  00000+0  16888-2 0  9993", "line2": "2 29754  98.8848  84.0064 0035712 255.0457 124.5156 14.19116709972777"}}, "geometry": {"type": "Point", "coordinates": [-92.68507482765706, 16.432647339022804]}}, {"type": "Feature", "properties": {"norad_id": 29758, "name": "FENGYUN 1C DEB", "group": "fengyun-1c-debris", "lat": 69.90766576020098, "lon": -57.28438128585303, "alt_km": 760.9477759101164, "timestamp": "2025-12-07T22:37:43.350696+00:00", "meta": {"OBJECT_NAME": "FENGYUN 1C DEB", "OBJECT_ID": "1999-025AY", "EPOCH": "2025-12-07T07:13:44.022144", "MEAN_MOTION": 14.40854991, "ECCENTRICITY": 0.00206091, "INCLINATION": 98.8563, "RA_OF_ASC_NODE": 96.8225, "ARG_OF_PERICENTER": 324.3048, "MEAN_ANOMALY": 57.1838, "EPHEMERIS_TYPE": 0, "CLASSIFICATION_TYPE": "U", "NORAD_CAT_ID": 29758, "ELEMENT_SET_NO": 999, "REV_AT_EPOCH": 97593, "BSTAR": 0.0040675198, "MEAN_MOTION_DOT": 0.00013045, "MEAN_MOTION_DDOT": 0}, "tle": {"line1": "1 29758U 99025AY  25341.30120396  .00013045  00000+0  40675-2 0  9991", "line2": "2 29758  98.8563  96.8225 0020609 324.3048  57.1838 14.40854991975935"}}, "geometry": {"type": "Point", "coordinates": [-57.28438128585303, 69.90766576020098]}}, {"type": "Feature", "properties": {"norad_id": 29760, "name": "FENGYUN 1C DEB", "group": "fengyun-1c-debris", "lat": 32.64853438643826, "lon": -21.423727828128406, "alt_km": 947.9289863353542, "timestamp": "2025-12-07T22:37:43.350706+00:00", "meta": {"OBJECT_NAME": "FENGYUN 1C DEB", "OBJECT_ID": "1999-025BA", "EPOCH": "2025-12-07T07:07:17.503104", "MEAN_MOTION": 14.08283685, "ECCENTRICITY": 0.01305386, "INCLINATION": 98.7622, "RA_OF_ASC_NODE": 343.6198, "ARG_OF_PERICENTER": 188.921, "MEAN_ANOMALY": 170.9639, "EPHEMERIS_TYPE": 0, "CLASSIFICATION_TYPE": "U", "NORAD_CAT_ID": 29760, "ELEMENT_SET_NO": 999, "REV_AT_EPOCH": 97016, "BSTAR": 0.00038220881, "MEAN_MOTION_DOT": 6.64e-06, "MEAN_MOTION_DDOT": 0}, "tle": {"line1": "1 29760U 99025BA  25341.29673036  .00000664  00000+0  38221-3 0  9994", "line2": "2 29760  98.7622 343.6198 0130538 188.9210 170.9639 14.08283685970166"}}, "geometry": {"type": "Point", "coordinates": [-21.423727828128406, 32.64853438643826]}}, {"type": "Feature", "properties": {"norad_id": 29762, "name": "FENGYUN 1C DEB", "group": "fengyun-1c-debris", "lat": 63.18715013454172, "lon": 162.234690074122, "alt_km": 894.6087610089444, "timestamp": "2025-12-07T22:37:43.350716+00:00", "meta": {"OBJECT_NAME": "FENGYUN 1C DEB", "OBJECT_ID": "1999-025BC", "EPOCH": "2025-12-07T05:31:12.258336", "MEAN_MOTION": 14.22562597, "ECCENTRICITY": 0.020436, "INCLINATION": 98.5787, "RA_OF_ASC_NODE": 324.1626, "ARG_OF_PERICENTER": 351.6832, "MEAN_ANOMALY": 73.2062, "EPHEMERIS_TYPE": 0, "CLASSIFICATION_TYPE": "U", "NORAD_CAT_ID": 29762, "ELEMENT_SET_NO": 999, "REV_AT_EPOCH": 97870, "BSTAR": 0.00076003901, "MEAN_MOTION_DOT": 2.056e-05, "MEAN_MOTION_DDOT": 0}, "tle": {"line1": "1 29762U 99025BC  25341.23000299  .00002056  00000+0  76004-3 0  9993", "line2": "2 29762  98.5787 324.1626 0204360 351.6832  73.2062 14.22562597978703"}}, "geometry": {"type": "Point", "coordinates": [162.234690074122, 63.18715013454172]}}, {"type": "Feature", "properties": {"norad_id": 29763, "name": "FENGYUN 1C DEB", "group": "fengyun-1c-debris", "lat": -52.15334954860258, "lon": 130.04423904545655, "alt_km": 801.4128914145604, "timestamp": "2025-12-07T22:37:43.350727+00:00", "meta": {"OBJECT_NAME": "FENGYUN 1C DEB", "OBJECT_ID": "1999-025BD", "EPOCH": "2025-12-07T04:33:04.929696", "MEAN_MOTION": 14.07870759, "ECCENTRICITY": 0.0127127, "INCLINATION": 98.7604, "RA_OF_ASC_NODE": 320.76, "ARG_OF_PERICENTER": 196.1987, "MEAN_ANOMALY": 180.3904, "EPHEMERIS_TYPE": 0, "CLASSIFICATION_TYPE": "U", "NORAD_CAT_ID": 29763, "ELEMENT_SET_NO": 999, "REV_AT_EPOCH": 96972, "BSTAR": 0.00023132775, "MEAN_MOTION_DOT": 3.8e-06, "MEAN_MOTION_DDOT": 0}, "tle": {"line1": "1 29763U 99025BD  25341.18964039  .00000380  00000+0  23133-3 0  9992", "line2": "2 29763  98.7604 320.7600 0127127 196.1987 180.3904 14.07870759969728"}}, "geometry": {"type": "Point", "coordinates": [130.04423904545655, -52.15334954860258]}}, {"type": "Feature", "properties": {"norad_id": 29765, "name": "FENGYUN 1C DEB", "group": "fengyun-1c-debris", "lat": -33.92091874332287, "lon": 174.27784977907248, "alt_km": 905.9384019532272, "timestamp": "2025-12-07T22:37:43.350756+00:00", "meta": {"OBJECT_NAME": "FENGYUN 1C DEB", "OBJECT_ID": "1999-025BF", "EPOCH": "2025-12-06T13:40:48.448416", "MEAN_MOTION": 14.02150743, "ECCENTRICITY": 0.00596546, "INCLINATION": 98.8308, "RA_OF_ASC_NODE": 358.9489, "ARG_OF_PERICENTER": 109.6845, "MEAN_ANOMALY": 17.9409, "EPHEMERIS_TYPE": 0, "CLASSIFICATION_TYPE": "U", "NORAD_CAT_ID": 29765, "ELEMENT_SET_NO": 999, "REV_AT_EPOCH": 96664, "BSTAR": 0.00020743466, "MEAN_MOTION_DOT": 2.8e-06, "MEAN_MOTION_DDOT": 0}, "tle": {"line1": "1 29765U 99025BF  25340.57000519  .00000280  00000+0  20743-3 0  9993", "line2": "2 29765  98.8308 358.9489 0059654 109.6845  17.9409 14.02150743966643"}}, "geometry": {"type": "Point", "coordinates": [174.27784977907248, -33.92091874332287]}}, {"type": "Feature", "properties": {"norad_id": 29766, "name": "FENGYUN 1C DEB", "group": "fengyun-1c-debris", "lat": 81.03300503322392, "lon": -172.55787248106208, "alt_km": 989.3373739420149, "timestamp": "2025-12-07T22:37:43.350768+00:00", "meta": {"OBJECT_NAME": "FENGYUN 1C DEB", "OBJECT_ID": "1999-025BG", "EPOCH": "2025-12-06T20:41:44.577600", "MEAN_MOTION": 13.97010789, "ECCENTRICITY": 0.01465864, "INCLINATION": 98.6846, "RA_OF_ASC_NODE": 290.8136, "ARG_OF_PERICENTER": 304.586, "MEAN_ANOMALY": 115.4805, "EPHEMERIS_TYPE": 0, "CLASSIFICATION_TYPE": "U", "NORAD_CAT_ID": 29766, "ELEMENT_SET_NO": 999, "REV_AT_EPOCH": 95722, "BSTAR": 0.0026844767, "MEAN_MOTION_DOT": 4.06e-05, "MEAN_MOTION_DDOT": 0}, "tle": {"line1": "1 29766U 99025BG  25340.86232150  .00004060  00000+0  26845-2 0  9992", "line2": "2 29766  98.6846 290.8136 0146586 304.5860 115.4805 13.97010789957222"}}, "geometry": {"type": "Point", "coordinates": [-172.55787248106208, 81.03300503322392]}}, {"type": "Feature", "properties": {"norad_id": 29767, "name": "FENGYUN 1C DEB", "group": "fengyun-1c-debris", "lat": -54.7068796671094, "lon": 119.34899537407058, "alt_km": 1116.8050495764273, "timestamp": "2025-12-07T22:37:43.350788+00:00", "meta": {"OBJECT_NAME": "FENGYUN 1C DEB", "OBJECT_ID": "1999-025BH", "EPOCH": "2025-12-07T04:59:24.251712", "MEAN_MOTION": 14.03263081, "ECCENTRICITY": 0.03331845, "INCLINATION": 98.1993, "RA_OF_ASC_NODE": 310.4375, "ARG_OF_PERICENTER": 76.9545, "MEAN_ANOMALY": 46.5625, "EPHEMERIS_TYPE": 0, "CLASSIFICATION_TYPE": "U", "NORAD_CAT_ID": 29767, "ELEMENT_SET_NO": 999, "REV_AT_EPOCH": 95522, "BSTAR": 0.0028441168, "MEAN_MOTION_DOT": 7.23e-05, "MEAN_MOTION_DDOT": 0}, "tle": {"line1": "1 29767U 99025BH  25341.20791958  .00007230  00000+0  28441-2 0  9994", "line2": "2 29767  98.1993 310.4375 0333184  76.9545  46.5625 14.03263081955222"}}, "geometry": {"type": "Point", "coordinates": [119.34899537407058, -54.7068796671094]}}]}